{
    "links": {
        "self": "http://www.neowsapp.com/rest/v1/neo/54051400?api_key=iIulBulltgU6a56xZRHN4H3l9WmuAYTsLGpBGhQ2"
    },
    "id": "54051400",
    "neo_reference_id": "54051400",
    "name": "(2020 QV5)",
    "designation": "2020 QV5",
    "nasa_jpl_url": "http://ssd.jpl.nasa.gov/sbdb.cgi?sstr=54051400",
    "absolute_magnitude_h": 23.898,
    "estimated_diameter": {
        "kilometers": {
            "estimated_diameter_min": 0.0441524672,
            "estimated_diameter_max": 0.098727918
        },
        "meters": {
            "estimated_diameter_min": 44.1524672032,
            "estimated_diameter_max": 98.7279180407
        },
        "miles": {
            "estimated_diameter_min": 0.0274350627,
            "estimated_diameter_max": 0.0613466652
        },
        "feet": {
            "estimated_diameter_min": 144.857180499,
            "estimated_diameter_max": 323.9105026247
        }
    },
    "is_potentially_hazardous_asteroid": false,
    "close_approach_data": [
        {
            "close_approach_date": "2020-09-24",
            "close_approach_date_full": "2020-Sep-24 08:26",
            "epoch_date_close_approach": 1600935960000,
            "relative_velocity": {
                "kilometers_per_second": "7.3113653958",
                "kilometers_per_hour": "26320.9154247972",
                "miles_per_hour": "16354.7932538136"
            },
            "miss_distance": {
                "astronomical": "0.2033372405",
                "lunar": "79.0981865545",
                "kilometers": "30418818.070477735",
                "miles": "18901377.080493343"
            },
            "orbiting_body": "Earth"
        }
    ],
    "orbital_data": {
        "orbit_id": "1",
        "orbit_determination_date": "2020-08-26 00:12:50",
        "first_observation_date": "2020-08-23",
        "last_observation_date": "2020-08-26",
        "data_arc_in_days": 3,
        "observations_used": 11,
        "orbit_uncertainty": "9",
        "minimum_orbit_intersection": ".18627",
        "jupiter_tisserand_invariant": "4.178",
        "epoch_osculation": "2459085.5",
        "eccentricity": ".301801207814786",
        "semi_major_axis": "1.661202439439185",
        "inclination": "13.85667466577515",
        "ascending_node_longitude": "171.0846626834947",
        "orbital_period": "782.0459425792158",
        "perihelion_distance": "1.15984953679157",
        "perihelion_argument": "214.6579066030966",
        "aphelion_distance": "2.1625553420868",
        "perihelion_time": "2459148.199600009012",
        "mean_anomaly": "331.137429690126",
        "mean_motion": ".460331011772412",
        "equinox": "J2000",
        "orbit_class": {
            "orbit_class_type": "AMO",
            "orbit_class_description": "Near-Earth asteroid orbits similar to that of 1221 Amor",
            "orbit_class_range": "1.017 AU < q (perihelion) < 1.3 AU"
        }
    },
    "is_sentry_object": false
}